OBJECT_NAME,OBJECT_ID,EPOCH,MEAN_MOTION,ECCENTRICITY,INCLINATION,RA_OF_ASC_NODE,ARG_OF_PERICENTER,MEAN_ANOMALY,EPHEMERIS_TYPE,CLASSIFICATION_TYPE,NORAD_CAT_ID,ELEMENT_SET_NO,REV_AT_EPOCH,BSTAR,MEAN_MOTION_DOT,MEAN_MOTION_DDOT
SAUDISAT 1C (SO-50),2002-058C,2026-07-17T13:35:59.912160,14.83100826,.0074455,64.5519,34.9873,256.8352,102.4439,0,U,27607,999,26896,.58139E-4,.339E-5,0
SAUDISAT 2,2004-025F,2026-07-17T22:32:09.339936,14.56699089,.00242274,98.5522,199.7176,199.5876,160.4393,0,U,28371,999,17022,.31108432E-4,.9E-6,0
SAUDISAT 3,2007-012B,2026-07-17T20:37:42.256704,14.71441077,.00157284,98.1468,149.2830,126.7753,233.4900,0,U,31118,999,3225,.2399884E-4,.98E-6,0
PISAT,2016-059B,2026-07-17T22:21:41.718240,14.69032391,.00305179,97.8192,198.0656,106.4756,253.9808,0,U,41784,999,52425,.81024469E-4,.431E-5,0
FLYING LAPTOP,2017-042G,2026-07-17T21:54:18.138816,15.01324030,.0019597,97.4820,353.2918,23.8192,336.3935,0,U,42831,999,49106,.16186322E-3,.2033E-4,0
SALSAT,2020-068K,2026-07-17T22:46:53.825376,15.30194622,.00095193,97.8860,203.8975,182.9906,177.1278,0,U,46495,999,32006,.14102738E-3,.4039E-4,0
